QIANFAN-147             
1 69106U 26108C   26161.47345480 -.02016868  00000+0 -12163+1 0  9995
2 69106  89.0115  22.9644 0015506 109.2001 251.0863 14.10721842  3395
QIANFAN-148             
1 69107U 26108D   26161.46647233 -.02039091  00000+0 -12169+1 0  9995
2 69107  89.0099  22.9630 0015055 119.6450 240.6236 14.11345070  3398
QIANFAN-149             
1 69108U 26108E   26161.46333875 -.02053629  00000+0 -12343+1 0  9997
2 69108  89.0113  22.9632 0014411 116.1784 244.0884 14.10989784  3397
QIANFAN-150             
1 69109U 26108F   26161.52338036 -.02023708  00000+0 -11835+1 0  9999
2 69109  89.0110  22.9544 0015100 126.9279 233.3292 14.12417470  3407
QIANFAN-151             
1 69110U 26108G   26161.51747256 -.02038098  00000+0 -11971+1 0  9997
2 69110  89.0108  22.9527 0014970 126.3017 233.9553 14.12211344  3403
QIANFAN-152             
1 69111U 26108H   26161.51122591 -.02107135  00000+0 -12100+1 0  9991
2 69111  89.0111  22.9519 0015810 140.0401 220.1952 14.13579259  3407
QIANFAN-153             
1 69112U 26108J   26161.50525611 -.02056444  00000+0 -11904+1 0  9998
2 69112  89.0104  22.9505 0016019 135.6889 224.5583 14.13037178  3404
QIANFAN-154             
1 69113U 26108K   26161.49739391 -.02026570  00000+0 -11586+1 0  9992
2 69113  89.0109  22.9504 0016209 134.7116 225.5393 14.13650499  3400
QIANFAN-155             
1 69114U 26108L   26161.50180684 -.02044095  00000+0 -11846+1 0  9991
2 69114  89.0112  22.9507 0016196 130.9990 229.2600 14.12946065  3409
QIANFAN-156             
1 69115U 26108M   26161.49047694 -.02029665  00000+0 -11424+1 0  9991
2 69115  89.0117  22.9498 0017886 144.1580 216.0811 14.14487984  3403
QIANFAN-157             
1 69116U 26108N   26161.53280339 -.02047294  00000+0 -11399+1 0  9991
2 69116  89.0108  22.9364 0018892 150.0677 210.1595 14.15103639  3415
QIANFAN-158             
1 69117U 26108P   26161.41074309 -.01977271  00000+0 -10978+1 0  9995
2 69117  89.0112  22.9549 0014391 146.1111 214.0998 14.15152601  3395
QIANFAN-159             
1 69118U 26108Q   26161.47636943 -.02009722  00000+0 -11000+1 0  9995
2 69118  89.0109  22.9465 0017745 153.4031 206.8071 14.15958241  3404
QIANFAN-160             
1 69119U 26108R   26161.47236025 -.02039311  00000+0 -11098+1 0  9997
2 69119  89.0110  22.9462 0018717 154.8698 205.3405 14.16320013  3404
QIANFAN-161             
1 69120U 26108S   26161.46764970 -.02014226  00000+0 -10940+1 0  9996
2 69120  89.0113  22.9458 0018453 154.4487 205.7617 14.16376315  3408
QIANFAN-162             
1 69121U 26108T   26161.46435536 -.02041283  00000+0 -10864+1 0  9998
2 69121  89.0107  22.9447 0019995 154.5101 205.7078 14.17508095  3400
SMILE                   
1 69123U 26109A   26144.65318427 -.00001976  00000+0 -42379-3 0  9994
2 69123  70.0007 229.2745 0009123 259.5159 100.4951 14.57062785   802
STARLINK-37726          
1 69124U 26110A   26161.51560234  .00037749  00000+0  69205-3 0  9998
2 69124  97.2852 357.6720 0001588  93.8704 266.2729 15.49203437  4567
STARLINK-37722          
1 69125U 26110B   26161.50002315  .00096721  00000+0  17597-2 0  9990
2 69125  97.2845 357.8194 0001631  62.7118 229.5505 15.49166137  4637
STARLINK-37715          
1 69126U 26110C   26161.50002315 -.02513234  00000+0 -45677-1 0  9997
2 69126  97.2845 357.9077 0002118  59.0429  82.6227 15.52867246  4580
STARLINK-37706          
1 69127U 26110D   26161.50002315 -.02680051  00000+0 -48389-1 0  9993
2 69127  97.2848 357.9117 0002253  89.9696  62.2189 15.53278371  4584
STARLINK-37723          
1 69128U 26110E   26161.50002315 -.02703178  00000+0 -48269-1 0  9997
2 69128  97.2846 357.9159 0002193  83.1885  80.3478 15.53615324  4583
STARLINK-37720          
1 69129U 26110F   26161.50681852  .00020691  00000+0  38084-3 0  9991
2 69129  97.2856 357.6838 0001600  85.4509 274.6925 15.49207828  4560
STARLINK-37533          
1 69130U 26110G   26161.50002315 -.02428622  00000+0 -42230-1 0  9990
2 69130  97.2850 357.9343 0001988  75.5810 118.9687 15.54558558  4586
STARLINK-37530          
1 69131U 26110H   26161.50002315 -.02464098  00000+0 -42369-1 0  9991
2 69131  97.2847 357.9391 0002189  80.5843 124.5408 15.54919645  4584
STARLINK-37660          
1 69132U 26110J   26161.50002315 -.00457614  00000+0 -88366-2 0  9994
2 69132  97.2845 357.8540 0001188 110.1126 266.3890 15.49427173  4584
STARLINK-37633          
1 69133U 26110K   26161.50002315 -.00519387  00000+0 -10091-1 0  9990
2 69133  97.2845 357.8676 0001252 121.7684 285.7101 15.49472112  4587
STARLINK-37361          
1 69134U 26110L   26161.50002315 -.02457401  00000+0 -40610-1 0  9991
2 69134  97.2844 357.9515 0002093  86.5279 148.5900 15.55979940  4583
STARLINK-37372          
1 69135U 26110M   26161.50002315  .00112419  00000+0  20421-2 0  9994
2 69135  97.2846 357.8784 0001054  98.7837 328.0057 15.49150645  4588
