OBJECT_NAME,OBJECT_ID,EPOCH,MEAN_MOTION,ECCENTRICITY,INCLINATION,RA_OF_ASC_NODE,ARG_OF_PERICENTER,MEAN_ANOMALY,EPHEMERIS_TYPE,CLASSIFICATION_TYPE,NORAD_CAT_ID,ELEMENT_SET_NO,REV_AT_EPOCH,BSTAR,MEAN_MOTION_DOT,MEAN_MOTION_DDOT
QIANFAN-147,2026-108C,2026-06-10T11:21:46.494720,14.10721842,.0015506,89.0115,22.9644,109.2001,251.0863,0,U,69106,999,339,-.12163E+1,-.2016868E-1,0
QIANFAN-148,2026-108D,2026-06-10T11:11:43.209312,14.11345070,.0015055,89.0099,22.9630,119.6450,240.6236,0,U,69107,999,339,-.12169E+1,-.2039091E-1,0
QIANFAN-149,2026-108E,2026-06-10T11:07:12.468000,14.10989784,.0014411,89.0113,22.9632,116.1784,244.0884,0,U,69108,999,339,-.12343E+1,-.2053629E-1,0
QIANFAN-150,2026-108F,2026-06-10T12:33:40.063104,14.12417470,.00151,89.0110,22.9544,126.9279,233.3292,0,U,69109,999,340,-.11835E+1,-.2023708E-1,0
QIANFAN-151,2026-108G,2026-06-10T12:25:09.629184,14.12211344,.001497,89.0108,22.9527,126.3017,233.9553,0,U,69110,999,340,-.11971E+1,-.2038098E-1,0
QIANFAN-152,2026-108H,2026-06-10T12:16:09.918624,14.13579259,.001581,89.0111,22.9519,140.0401,220.1952,0,U,69111,999,340,-.121E+1,-.2107135E-1,0
QIANFAN-153,2026-108J,2026-06-10T12:07:34.127904,14.13037178,.0016019,89.0104,22.9505,135.6889,224.5583,0,U,69112,999,340,-.11904E+1,-.2056444E-1,0
QIANFAN-154,2026-108K,2026-06-10T11:56:14.833824,14.13650499,.0016209,89.0109,22.9504,134.7116,225.5393,0,U,69113,999,340,-.11586E+1,-.202657E-1,0
QIANFAN-155,2026-108L,2026-06-10T12:02:36.110976,14.12946065,.0016196,89.0112,22.9507,130.9990,229.2600,0,U,69114,999,340,-.11846E+1,-.2044095E-1,0
QIANFAN-156,2026-108M,2026-06-10T11:46:17.207616,14.14487984,.0017886,89.0117,22.9498,144.1580,216.0811,0,U,69115,999,340,-.11424E+1,-.2029665E-1,0
QIANFAN-157,2026-108N,2026-06-10T12:47:14.212896,14.15103639,.0018892,89.0108,22.9364,150.0677,210.1595,0,U,69116,999,341,-.11399E+1,-.2047294E-1,0
QIANFAN-158,2026-108P,2026-06-10T09:51:28.202976,14.15152601,.0014391,89.0112,22.9549,146.1111,214.0998,0,U,69117,999,339,-.10978E+1,-.1977271E-1,0
QIANFAN-159,2026-108Q,2026-06-10T11:25:58.318752,14.15958241,.0017745,89.0109,22.9465,153.4031,206.8071,0,U,69118,999,340,-.11E+1,-.2009722E-1,0
QIANFAN-160,2026-108R,2026-06-10T11:20:11.925600,14.16320013,.0018717,89.0110,22.9462,154.8698,205.3405,0,U,69119,999,340,-.11098E+1,-.2039311E-1,0
QIANFAN-161,2026-108S,2026-06-10T11:13:24.934080,14.16376315,.0018453,89.0113,22.9458,154.4487,205.7617,0,U,69120,999,340,-.1094E+1,-.2014226E-1,0
QIANFAN-162,2026-108T,2026-06-10T11:08:40.303104,14.17508095,.0019995,89.0107,22.9447,154.5101,205.7078,0,U,69121,999,340,-.10864E+1,-.2041283E-1,0
SMILE,2026-109A,2026-05-24T15:40:35.120928,14.57062785,.00091232,70.0007,229.2745,259.5159,100.4951,0,U,69123,999,80,-.42378883E-3,-.1976E-4,0
STARLINK-37726,2026-110A,2026-06-10T12:22:28.042176,15.49203437,.0001588,97.2852,357.6720,93.8704,266.2729,0,U,69124,999,456,.69205E-3,.37749E-3,0
STARLINK-37722,2026-110B,2026-06-10T12:00:02.000160,15.49166137,.0001631,97.2845,357.8194,62.7118,229.5505,0,U,69125,999,463,.17597E-2,.96721E-3,0
STARLINK-37715,2026-110C,2026-06-10T12:00:02.000160,15.52867246,.0002118,97.2845,357.9077,59.0429,82.6227,0,U,69126,999,458,-.45677E-1,-.2513234E-1,0
STARLINK-37706,2026-110D,2026-06-10T12:00:02.000160,15.53278371,.0002253,97.2848,357.9117,89.9696,62.2189,0,U,69127,999,458,-.48389E-1,-.2680051E-1,0
STARLINK-37723,2026-110E,2026-06-10T12:00:02.000160,15.53615324,.0002193,97.2846,357.9159,83.1885,80.3478,0,U,69128,999,458,-.48269E-1,-.2703178E-1,0
STARLINK-37720,2026-110F,2026-06-10T12:09:49.120128,15.49207828,.00016,97.2856,357.6838,85.4509,274.6925,0,U,69129,999,456,.38084E-3,.20691E-3,0
STARLINK-37533,2026-110G,2026-06-10T12:00:02.000160,15.54558558,.0001988,97.2850,357.9343,75.5810,118.9687,0,U,69130,999,458,-.4223E-1,-.2428622E-1,0
STARLINK-37530,2026-110H,2026-06-10T12:00:02.000160,15.54919645,.0002189,97.2847,357.9391,80.5843,124.5408,0,U,69131,999,458,-.42369E-1,-.2464098E-1,0
STARLINK-37660,2026-110J,2026-06-10T12:00:02.000160,15.49427173,.0001188,97.2845,357.8540,110.1126,266.3890,0,U,69132,999,458,-.88366E-2,-.457614E-2,0
STARLINK-37633,2026-110K,2026-06-10T12:00:02.000160,15.49472112,.0001252,97.2845,357.8676,121.7684,285.7101,0,U,69133,999,458,-.10091E-1,-.519387E-2,0
STARLINK-37361,2026-110L,2026-06-10T12:00:02.000160,15.55979940,.0002093,97.2844,357.9515,86.5279,148.5900,0,U,69134,999,458,-.4061E-1,-.2457401E-1,0
STARLINK-37372,2026-110M,2026-06-10T12:00:02.000160,15.49150645,.0001054,97.2846,357.8784,98.7837,328.0057,0,U,69135,999,458,.20421E-2,.112419E-2,0
